{"type": "FeatureCollection", "features": [{"type": "Feature", "properties": {"norad_id": 24876, "name": "GPS BIIR-2  (PRN 13)", "group": "gps-ops", "lat": -8.096985977839928, "lon": 100.54562763360116, "alt_km": 20080.17944110127, "timestamp": "2025-12-07T05:38:10.163129+00:00", "meta": {"OBJECT_NAME": "GPS BIIR-2  (PRN 13)", "OBJECT_ID": "1997-035A", "EPOCH": "2025-12-05T18:03:38.663712", "MEAN_MOTION": 2.00563458, "ECCENTRICITY": 0.00967066, "INCLINATION": 55.8919, "RA_OF_ASC_NODE": 106.1422, "ARG_OF_PERICENTER": 57.0175, "MEAN_ANOMALY": 303.8711, "EPHEMERIS_TYPE": 0, "CLASSIFICATION_TYPE": "U", "NORAD_CAT_ID": 24876, "ELEMENT_SET_NO": 999, "REV_AT_EPOCH": 20807, "BSTAR": 0, "MEAN_MOTION_DOT": 4e-08, "MEAN_MOTION_DDOT": 0}, "tle": {"line1": "1 24876U 97035A   25339.75253083  .00000004  00000+0  00000+0 0  9998", "line2": "2 24876  55.8919 106.1422 0096706  57.0175 303.8711  2.00563458208078"}}, "geometry": {"type": "Point", "coordinates": [100.54562763360116, -8.096985977839928]}}, {"type": "Feature", "properties": {"norad_id": 26360, "name": "GPS BIIR-4  (PRN 20)", "group": "gps-ops", "lat": 54.40958651853982, "lon": 104.73657847055308, "alt_km": 20271.594827826673, "timestamp": "2025-12-07T05:38:10.163157+00:00", "meta": {"OBJECT_NAME": "GPS BIIR-4  (PRN 20)", "OBJECT_ID": "2000-025A", "EPOCH": "2025-12-06T06:26:54.384864", "MEAN_MOTION": 2.00568091, "ECCENTRICITY": 0.00388254, "INCLINATION": 55.0413, "RA_OF_ASC_NODE": 27.0997, "ARG_OF_PERICENTER": 241.3684, "MEAN_ANOMALY": 224.0568, "EPHEMERIS_TYPE": 0, "CLASSIFICATION_TYPE": "U", "NORAD_CAT_ID": 26360, "ELEMENT_SET_NO": 999, "REV_AT_EPOCH": 18740, "BSTAR": 0, "MEAN_MOTION_DOT": -7.8e-07, "MEAN_MOTION_DDOT": 0}, "tle": {"line1": "1 26360U 00025A   25340.26868501 -.00000078  00000+0  00000+0 0  9998", "line2": "2 26360  55.0413  27.0997 0038825 241.3684 224.0568  2.00568091187403"}}, "geometry": {"type": "Point", "coordinates": [104.73657847055308, 54.40958651853982]}}, {"type": "Feature", "properties": {"norad_id": 26407, "name": "GPS BIIR-5  (PRN 22)", "group": "gps-ops", "lat": -53.12888728651886, "lon": 153.21759689541932, "alt_km": 19871.585178746296, "timestamp": "2025-12-07T05:38:10.163173+00:00", "meta": {"OBJECT_NAME": "GPS BIIR-5  (PRN 22)", "OBJECT_ID": "2000-040A", "EPOCH": "2025-12-06T02:15:28.524096", "MEAN_MOTION": 2.00567762, "ECCENTRICITY": 0.01263695, "INCLINATION": 54.8924, "RA_OF_ASC_NODE": 222.8334, "ARG_OF_PERICENTER": 301.6877, "MEAN_ANOMALY": 237.2417, "EPHEMERIS_TYPE": 0, "CLASSIFICATION_TYPE": "U", "NORAD_CAT_ID": 26407, "ELEMENT_SET_NO": 999, "REV_AT_EPOCH": 18607, "BSTAR": 0, "MEAN_MOTION_DOT": 4.6e-07, "MEAN_MOTION_DDOT": 0}, "tle": {"line1": "1 26407U 00040A   25340.09408014  .00000046  00000+0  00000+0 0  9991", "line2": "2 26407  54.8924 222.8334 0126369 301.6877 237.2417  2.00567762186079"}}, "geometry": {"type": "Point", "coordinates": [153.21759689541932, -53.12888728651886]}}, {"type": "Feature", "properties": {"norad_id": 27663, "name": "GPS BIIR-8  (PRN 16)", "group": "gps-ops", "lat": 44.3024739388796, "lon": -94.1448328030566, "alt_km": 19787.57527647641, "timestamp": "2025-12-07T05:38:10.163187+00:00", "meta": {"OBJECT_NAME": "GPS BIIR-8  (PRN 16)", "OBJECT_ID": "2003-005A", "EPOCH": "2025-12-06T16:05:33.383328", "MEAN_MOTION": 2.00571142, "ECCENTRICITY": 0.01472147, "INCLINATION": 54.9248, "RA_OF_ASC_NODE": 222.6198, "ARG_OF_PERICENTER": 51.718, "MEAN_ANOMALY": 319.2598, "EPHEMERIS_TYPE": 0, "CLASSIFICATION_TYPE": "U", "NORAD_CAT_ID": 27663, "ELEMENT_SET_NO": 999, "REV_AT_EPOCH": 16745, "BSTAR": 0, "MEAN_MOTION_DOT": 3.9e-07, "MEAN_MOTION_DDOT": 0}, "tle": {"line1": "1 27663U 03005A   25340.67052527  .00000039  00000+0  00000+0 0  9990", "line2": "2 27663  54.9248 222.6198 0147214  51.7180 319.2598  2.00571142167451"}}, "geometry": {"type": "Point", "coordinates": [-94.1448328030566, 44.3024739388796]}}, {"type": "Feature", "properties": {"norad_id": 28190, "name": "GPS BIIR-11 (PRN 19)", "group": "gps-ops", "lat": -30.591899591430895, "lon": 127.86814513614672, "alt_km": 20002.937173037386, "timestamp": "2025-12-07T05:38:10.163199+00:00", "meta": {"OBJECT_NAME": "GPS BIIR-11 (PRN 19)", "OBJECT_ID": "2004-009A", "EPOCH": "2025-12-06T01:17:13.122240", "MEAN_MOTION": 2.0056089, "ECCENTRICITY": 0.01082534, "INCLINATION": 54.9918, "RA_OF_ASC_NODE": 283.4884, "ARG_OF_PERICENTER": 167.5282, "MEAN_ANOMALY": 276.9875, "EPHEMERIS_TYPE": 0, "CLASSIFICATION_TYPE": "U", "NORAD_CAT_ID": 28190, "ELEMENT_SET_NO": 999, "REV_AT_EPOCH": 15907, "BSTAR": 0, "MEAN_MOTION_DOT": -3.9e-07, "MEAN_MOTION_DDOT": 0}, "tle": {"line1": "1 28190U 04009A   25340.05362410 -.00000039  00000+0  00000+0 0  9999", "line2": "2 28190  54.9918 283.4884 0108253 167.5282 276.9875  2.00560890159071"}}, "geometry": {"type": "Point", "coordinates": [127.86814513614672, -30.591899591430895]}}, {"type": "Feature", "properties": {"norad_id": 28474, "name": "GPS BIIR-13 (PRN 02)", "group": "gps-ops", "lat": -54.72828978504918, "lon": -106.37460501620659, "alt_km": 19802.87911541245, "timestamp": "2025-12-07T05:38:10.163211+00:00", "meta": {"OBJECT_NAME": "GPS BIIR-13 (PRN 02)", "OBJECT_ID": "2004-045A", "EPOCH": "2025-12-05T20:20:11.876352", "MEAN_MOTION": 2.0056901, "ECCENTRICITY": 0.01706228, "INCLINATION": 55.2441, "RA_OF_ASC_NODE": 332.6831, "ARG_OF_PERICENTER": 308.9503, "MEAN_ANOMALY": 46.5475, "EPHEMERIS_TYPE": 0, "CLASSIFICATION_TYPE": "U", "NORAD_CAT_ID": 28474, "ELEMENT_SET_NO": 999, "REV_AT_EPOCH": 15454, "BSTAR": 0, "MEAN_MOTION_DOT": -7.7e-07, "MEAN_MOTION_DDOT": 0}, "tle": {"line1": "1 28474U 04045A   25339.84735968 -.00000077  00000+0  00000+0 0  9993", "line2": "2 28474  55.2441 332.6831 0170622 308.9503  46.5475  2.00569010154543"}}, "geometry": {"type": "Point", "coordinates": [-106.37460501620659, -54.72828978504918]}}, {"type": "Feature", "properties": {"norad_id": 28874, "name": "GPS BIIRM-1 (PRN 17)", "group": "gps-ops", "lat": -42.0951919886482, "lon": 140.04853983740844, "alt_km": 19997.629361104402, "timestamp": "2025-12-07T05:38:10.163223+00:00", "meta": {"OBJECT_NAME": "GPS BIIRM-1 (PRN 17)", "OBJECT_ID": "2005-038A", "EPOCH": "2025-12-06T00:39:47.683008", "MEAN_MOTION": 2.00593123, "ECCENTRICITY": 0.01317527, "INCLINATION": 55.0379, "RA_OF_ASC_NODE": 280.9712, "ARG_OF_PERICENTER": 293.1135, "MEAN_ANOMALY": 151.2056, "EPHEMERIS_TYPE": 0, "CLASSIFICATION_TYPE": "U", "NORAD_CAT_ID": 28874, "ELEMENT_SET_NO": 999, "REV_AT_EPOCH": 14796, "BSTAR": 0, "MEAN_MOTION_DOT": -3.6e-07, "MEAN_MOTION_DDOT": 0}, "tle": {"line1": "1 28874U 05038A   25340.02763522 -.00000036  00000+0  00000+0 0  9994", "line2": "2 28874  55.0379 280.9712 0131752 293.1135 151.2056  2.00593123147964"}}, "geometry": {"type": "Point", "coordinates": [140.04853983740844, -42.0951919886482]}}, {"type": "Feature", "properties": {"norad_id": 29486, "name": "GPS BIIRM-2 (PRN 31)", "group": "gps-ops", "lat": 30.960105993355842, "lon": -46.220783375523716, "alt_km": 20171.352635224113, "timestamp": "2025-12-07T05:38:10.163235+00:00", "meta": {"OBJECT_NAME": "GPS BIIRM-2 (PRN 31)", "OBJECT_ID": "2006-042A", "EPOCH": "2025-12-05T13:29:33.507168", "MEAN_MOTION": 2.00554326, "ECCENTRICITY": 0.01073593, "INCLINATION": 54.693, "RA_OF_ASC_NODE": 159.0256, "ARG_OF_PERICENTER": 51.7863, "MEAN_ANOMALY": 320.1689, "EPHEMERIS_TYPE": 0, "CLASSIFICATION_TYPE": "U", "NORAD_CAT_ID": 29486, "ELEMENT_SET_NO": 999, "REV_AT_EPOCH": 14051, "BSTAR": 0, "MEAN_MOTION_DOT": 7.3e-07, "MEAN_MOTION_DDOT": 0}, "tle": {"line1": "1 29486U 06042A   25339.56219337  .00000073  00000+0  00000+0 0  9997", "line2": "2 29486  54.6930 159.0256 0107359  51.7863 320.1689  2.00554326140518"}}, "geometry": {"type": "Point", "coordinates": [-46.220783375523716, 30.960105993355842]}}, {"type": "Feature", "properties": {"norad_id": 29601, "name": "GPS BIIRM-3 (PRN 12)", "group": "gps-ops", "lat": -14.520730295753287, "lon": 52.084607694972966, "alt_km": 20262.95374703084, "timestamp": "2025-12-07T05:38:10.163246+00:00", "meta": {"OBJECT_NAME": "GPS BIIRM-3 (PRN 12)", "OBJECT_ID": "2006-052A", "EPOCH": "2025-12-05T23:11:48.178176", "MEAN_MOTION": 2.00572974, "ECCENTRICITY": 0.00876305, "INCLINATION": 54.9719, "RA_OF_ASC_NODE": 221.6671, "ARG_OF_PERICENTER": 87.3693, "MEAN_ANOMALY": 273.7261, "EPHEMERIS_TYPE": 0, "CLASSIFICATION_TYPE": "U", "NORAD_CAT_ID": 29601, "ELEMENT_SET_NO": 999, "REV_AT_EPOCH": 13953, "BSTAR": 0, "MEAN_MOTION_DOT": 4.9e-07, "MEAN_MOTION_DDOT": 0}, "tle": {"line1": "1 29601U 06052A   25339.96652984  .00000049  00000+0  00000+0 0  9993", "line2": "2 29601  54.9719 221.6671 0087630  87.3693 273.7261  2.00572974139535"}}, "geometry": {"type": "Point", "coordinates": [52.084607694972966, -14.520730295753287]}}, {"type": "Feature", "properties": {"norad_id": 32260, "name": "GPS BIIRM-4 (PRN 15)", "group": "gps-ops", "lat": -19.750738840767237, "lon": 72.84342494663755, "alt_km": 20326.327644699093, "timestamp": "2025-12-07T05:38:10.163258+00:00", "meta": {"OBJECT_NAME": "GPS BIIRM-4 (PRN 15)", "OBJECT_ID": "2007-047A", "EPOCH": "2025-12-06T06:31:43.189824", "MEAN_MOTION": 2.0056467, "ECCENTRICITY": 0.01643332, "INCLINATION": 53.9509, "RA_OF_ASC_NODE": 88.0257, "ARG_OF_PERICENTER": 85.1745, "MEAN_ANOMALY": 276.6803, "EPHEMERIS_TYPE": 0, "CLASSIFICATION_TYPE": "U", "NORAD_CAT_ID": 32260, "ELEMENT_SET_NO": 999, "REV_AT_EPOCH": 13294, "BSTAR": 0, "MEAN_MOTION_DOT": -2.3e-07, "MEAN_MOTION_DDOT": 0}, "tle": {"line1": "1 32260U 07047A   25340.27202766 -.00000023  00000+0  00000+0 0  9991", "line2": "2 32260  53.9509  88.0257 0164333  85.1745 276.6803  2.00564670132947"}}, "geometry": {"type": "Point", "coordinates": [72.84342494663755, -19.750738840767237]}}]}